[{"OBJECT_NAME":"STARLINK-2255","OBJECT_ID":"2021-041AW","EPOCH":"2026-03-09T12:30:12.748896","MEAN_MOTION":15.29339204,"ECCENTRICITY":0.00016461,"INCLINATION":53.1569,"RA_OF_ASC_NODE":140.3268,"ARG_OF_PERICENTER":57.6674,"MEAN_ANOMALY":302.4486,"EPHEMERIS_TYPE":0,"CLASSIFICATION_TYPE":"U","NORAD_CAT_ID":48597,"ELEMENT_SET_NO":999,"REV_AT_EPOCH":26633,"BSTAR":0.00043720996,"MEAN_MOTION_DOT":0.00012274,"MEAN_MOTION_DDOT":0},{"OBJECT_NAME":"CP8 (IPEX)","OBJECT_ID":"2013-072K","EPOCH":"2026-03-09T13:09:38.394720","MEAN_MOTION":15.06461805,"ECCENTRICITY":0.0159394,"INCLINATION":120.4656,"RA_OF_ASC_NODE":280.3913,"ARG_OF_PERICENTER":252.2911,"MEAN_ANOMALY":106.0698,"EPHEMERIS_TYPE":0,"CLASSIFICATION_TYPE":"U","NORAD_CAT_ID":39471,"ELEMENT_SET_NO":999,"REV_AT_EPOCH":10021,"BSTAR":0.00057825,"MEAN_MOTION_DOT":0.0001114,"MEAN_MOTION_DDOT":0}]
